COMMENT,ORIGINATOR,NORAD_CAT_ID,OBJECT_NAME,OBJECT_TYPE,CLASSIFICATION_TYPE,INTLDES,EPOCH,EPOCH_MICROSECONDS,MEAN_MOTION,ECCENTRICITY,INCLINATION,RA_OF_ASC_NODE,ARG_OF_PERICENTER,MEAN_ANOMALY,EPHEMERIS_TYPE,ELEMENT_SET_NO,REV_AT_EPOCH,BSTAR,MEAN_MOTION_DOT,MEAN_MOTION_DDOT,FILE,TLE_LINE0,TLE_LINE1,TLE_LINE2,OBJECT_ID,OBJECT_NUMBER,SEMIMAJOR_AXIS,PERIOD,APOGEE,PERIGEE,DECAYED
"GENERATED VIA SPACETRACK.ORG API","18 SPCS","55089","SPACEBEE-163","PAYLOAD","U","23001CJ","2023-10-22 21:28:29","986464","15.26225352","0.0011323","97.4598","355.2162","276.2756","83.7193","0","999","4453","0.0012844","0.00033351","0","4048538","0 SPACEBEE-163","1 55089U 23001CJ  23295.89479151  .00033351  00000-0  12844-2 0  9994","2 55089  97.4598 355.2162 0011323 276.2756  83.7193 15.26225352 44530","2023-001CJ","55089","6865.245","94.350","494.884","479.337","0"
"GENERATED VIA SPACETRACK.ORG API","18 SPCS","55089","SPACEBEE-163","PAYLOAD","U","23001CJ","2023-10-23 03:46:08","497056","15.26241228","0.001135","97.4594","355.4777","275.5219","84.4725","0","999","4457","0.0011903","0.00030907","0","4049606","0 SPACEBEE-163","1 55089U 23001CJ  23296.15704279  .00030907  00000-0  11903-2 0  9995","2 55089  97.4594 355.4777 0011350 275.5219  84.4725 15.26241228 44579","2023-001CJ","55089","6865.198","94.349","494.855","479.271","0"
"GENERATED VIA SPACETRACK.ORG API","18 SPCS","55089","SPACEBEE-163","PAYLOAD","U","23001CJ","2023-10-23 21:04:38","366976","15.26277707","0.0011393","97.4594","356.1975","272.6187","87.3747","0","999","4468","0.0010341","0.00026857","0","4050204","0 SPACEBEE-163","1 55089U 23001CJ  23296.87822184  .00026857  00000-0  10341-2 0  9994","2 55089  97.4594 356.1975 0011393 272.6187  87.3747 15.26277707 44685","2023-001CJ","55089","6865.088","94.347","494.775","479.132","0"
"GENERATED VIA SPACETRACK.ORG API","18 SPCS","55089","SPACEBEE-163","PAYLOAD","U","23001CJ","2023-10-24 03:22:16","109472","15.2629444","0.0011427","97.4595","356.4594","271.5139","88.479","0","999","4472","0.0011517","0.00029947","0","4051575","0 SPACEBEE-163","1 55089U 23001CJ  23297.14046423  .00029947  00000-0  11517-2 0  9998","2 55089  97.4595 356.4594 0011427 271.5139  88.4790 15.26294440 44727","2023-001CJ","55089","6865.038","94.346","494.748","479.059","0"
"GENERATED VIA SPACETRACK.ORG API","18 SPCS","55089","SPACEBEE-163","PAYLOAD","U","23001CJ","2023-10-24 03:22:16","109472","15.2629444","0.0011427","97.4595","356.4594","271.5139","88.479","0","999","4472","0.0011517","0.00029947","0","4051588","0 SPACEBEE-163","1 55089U 23001CJ  23297.14046423  .00029947  00000-0  11517-2 0  9998","2 55089  97.4595 356.4594 0011427 271.5139  88.4790 15.26294440 44727","2023-001CJ","55089","6865.038","94.346","494.748","479.059","0"
"GENERATED VIA SPACETRACK.ORG API","18 SPCS","55089","SPACEBEE-163","PAYLOAD","U","23001CJ","2023-10-25 21:51:11","76768","15.2637902","0.0011392","97.4597","358.2271","263.9795","96.0145","0","999","4499","0.0010622","0.00027676","0","4052517","0 SPACEBEE-163","1 55089U 23001CJ  23298.91054487  .00027676  00000-0  10622-2 0  9996","2 55089  97.4597 358.2271 0011392 263.9795  96.0145 15.26379020 44991","2023-001CJ","55089","6864.785","94.341","494.470","478.829","0"
"GENERATED VIA SPACETRACK.ORG API","18 SPCS","55089","SPACEBEE-163","PAYLOAD","U","23001CJ","2023-10-26 04:08:47","301216","15.26396228","0.0011422","97.4598","358.4889","263.0726","96.9213","0","999","4503","0.0011427","0.00029803","0","4054082","0 SPACEBEE-163","1 55089U 23001CJ  23299.17276969  .00029803  00000-0  11427-2 0  9994","2 55089  97.4598 358.4889 0011422 263.0726  96.9213 15.26396228 45038","2023-001CJ","55089","6864.733","94.340","494.439","478.757","0"
"GENERATED VIA SPACETRACK.ORG API","18 SPCS","55089","SPACEBEE-163","PAYLOAD","U","23001CJ","2023-10-26 16:43:59","116800","15.264253","0.0011437","97.4599","359.012","260.5947","99.3999","0","999","4511","0.0011025","0.00028774","0","4054421","0 SPACEBEE-163","1 55089U 23001CJ  23299.69721200  .00028774  00000-0  11025-2 0  9994","2 55089  97.4599 359.0120 0011437 260.5947  99.3999 15.26425300 45118","2023-001CJ","55089","6864.646","94.338","494.362","478.660","0"
"GENERATED VIA SPACETRACK.ORG API","18 SPCS","55089","SPACEBEE-163","PAYLOAD","U","23001CJ","2023-10-27 03:44:46","41216","15.26463119","0.001145","97.4592","359.4705","259.0597","100.9354","0","999","4518","0.0014722","0.00038541","0","4055225","0 SPACEBEE-163","1 55089U 23001CJ  23300.15608844  .00038541  00000-0  14722-2 0  9996","2 55089  97.4592 359.4705 0011450 259.0597 100.9354 15.26463119 45184","2023-001CJ","55089","6864.532","94.336","494.257","478.538","0"
"GENERATED VIA SPACETRACK.ORG API","18 SPCS","55089","SPACEBEE-163","PAYLOAD","U","23001CJ","2023-10-27 03:44:46","41216","15.26463119","0.001145","97.4592","359.4705","259.0597","100.9354","0","999","4518","0.0014722","0.00038541","0","4055819","0 SPACEBEE-163","1 55089U 23001CJ  23300.15608844  .00038541  00000-0  14722-2 0  9996","2 55089  97.4592 359.4705 0011450 259.0597 100.9354 15.26463119 45184","2023-001CJ","55089","6864.532","94.336","494.257","478.538","0"
"GENERATED VIA SPACETRACK.ORG API","18 SPCS","55089","SPACEBEE-163","PAYLOAD","U","23001CJ","2023-10-27 16:19:55","772832","15.26495992","0.0011483","97.4591","359.9941","256.8522","103.1435","0","999","4526","0.0011826","0.00030945","0","4056385","0 SPACEBEE-163","1 55089U 23001CJ  23300.68050663  .00030945  00000-0  11826-2 0  9996","2 55089  97.4591 359.9941 0011483 256.8522 103.1435 15.26495992 45267","2023-001CJ","55089","6864.434","94.334","494.181","478.416","0"
"GENERATED VIA SPACETRACK.ORG API","18 SPCS","55089","SPACEBEE-163","PAYLOAD","U","23001CJ","2023-10-27 16:19:55","772832","15.26495992","0.0011483","97.4591","359.9941","256.8522","103.1435","0","999","4526","0.0011826","0.00030945","0","4056811","0 SPACEBEE-163","1 55089U 23001CJ  23300.68050663  .00030945  00000-0  11826-2 0  9996","2 55089  97.4591 359.9941 0011483 256.8522 103.1435 15.26495992 45267","2023-001CJ","55089","6864.434","94.334","494.181","478.416","0"
"GENERATED VIA SPACETRACK.ORG API","18 SPCS","55089","SPACEBEE-163","PAYLOAD","U","23001CJ","2023-10-28 03:20:40","943328","15.26525811","0.00115","97.459","0.4524","255.3632","104.6331","0","999","4533","0.0011542","0.00030224","0","4057688","0 SPACEBEE-163","1 55089U 23001CJ  23301.13936277  .00030224  00000-0  11542-2 0  9996","2 55089  97.4590   0.4524 0011500 255.3632 104.6331 15.26525811 45330","2023-001CJ","55089","6864.345","94.332","494.104","478.316","0"
"GENERATED VIA SPACETRACK.ORG API","18 SPCS","55089","SPACEBEE-163","PAYLOAD","U","23001CJ","2023-10-28 15:55:48","846720","15.26560435","0.0011523","97.4589","0.9763","253.479","106.5183","0","999","4541","0.0012615","0.00033088","0","4058258","0 SPACEBEE-163","1 55089U 23001CJ  23301.66375980  .00033088  00000-0  12615-2 0  9995","2 55089  97.4589   0.9763 0011523 253.4790 106.5183 15.26560435 45413","2023-001CJ","55089","6864.241","94.330","494.015","478.196","0"
"GENERATED VIA SPACETRACK.ORG API","18 SPCS","55089","SPACEBEE-163","PAYLOAD","U","23001CJ","2023-10-29 02:56:32","282304","15.2659848","0.0011508","97.4587","1.4345","252.0961","107.9023","0","999","4548","0.0015113","0.00039735","0","4058769","0 SPACEBEE-163","1 55089U 23001CJ  23302.12259586  .00039735  00000-0  15113-2 0  9991","2 55089  97.4587   1.4345 0011508 252.0961 107.9023 15.26598480 45487","2023-001CJ","55089","6864.127","94.327","493.891","478.092","0"
"GENERATED VIA SPACETRACK.ORG API","18 SPCS","55089","SPACEBEE-163","PAYLOAD","U","23001CJ","2023-10-29 02:56:32","282304","15.2659848","0.0011508","97.4587","1.4345","252.0961","107.9023","0","999","4548","0.0015113","0.00039735","0","4059417","0 SPACEBEE-163","1 55089U 23001CJ  23302.12259586  .00039735  00000-0  15113-2 0  9991","2 55089  97.4587   1.4345 0011508 252.0961 107.9023 15.26598480 45487","2023-001CJ","55089","6864.127","94.327","493.891","478.092","0"
"GENERATED VIA SPACETRACK.ORG API","18 SPCS","55089","SPACEBEE-163","PAYLOAD","U","23001CJ","2023-10-29 17:06:01","30752","15.26644348","0.0011482","97.4583","2.0234","249.6989","110.3016","0","999","4557","0.0014439","0.00038004","0","4059994","0 SPACEBEE-163","1 55089U 23001CJ  23302.71251193  .00038004  00000-0  14439-2 0  9990","2 55089  97.4583   2.0234 0011482 249.6989 110.3016 15.26644348 45575","2023-001CJ","55089","6863.989","94.325","493.735","477.973","0"
"GENERATED VIA SPACETRACK.ORG API","18 SPCS","55089","SPACEBEE-163","PAYLOAD","U","23001CJ","2023-10-30 04:06:42","285600","15.26681205","0.0011468","97.458","2.4816","247.8825","112.1197","0","999","4564","0.0014553","0.00038348","0","4060613","0 SPACEBEE-163","1 55089U 23001CJ  23303.17132275  .00038348  00000-0  14553-2 0  9998","2 55089  97.4580   2.4816 0011468 247.8825 112.1197 15.26681205 45646","2023-001CJ","55089","6863.879","94.322","493.615","477.872","0"
"GENERATED VIA SPACETRACK.ORG API","18 SPCS","55089","SPACEBEE-163","PAYLOAD","U","23001CJ","2023-10-30 10:24:14","42304","15.26699936","0.0011461","97.458","2.7433","246.7408","113.2624","0","999","4568","0.0014145","0.00037287","0","4061878","0 SPACEBEE-163","1 55089U 23001CJ  23303.43349586  .00037287  00000-0  14145-2 0  9990","2 55089  97.4580   2.7433 0011461 246.7408 113.2624 15.26699936 45683","2023-001CJ","55089","6863.823","94.321","493.554","477.821","0"
"GENERATED VIA SPACETRACK.ORG API","18 SPCS","55089","SPACEBEE-163","PAYLOAD","U","23001CJ","2023-10-31 03:42:25","112448","15.26744705","0.0011463","97.4573","3.463","243.9068","116.0991","0","999","4579","0.001226","0.00032331","0","4062274","0 SPACEBEE-163","1 55089U 23001CJ  23304.15445732  .00032331  00000-0  12260-2 0  9991","2 55089  97.4573   3.4630 0011463 243.9068 116.0991 15.26744705 45790","2023-001CJ","55089","6863.688","94.318","493.421","477.686","0"
